NORAD_CAT_ID,OBJECT_NAME,OBJECT_TYPE,EPOCH,MEAN_MOTION,ECCENTRICITY,INCLINATION,RA_OF_ASC_NODE,ARG_OF_PERICENTER,MEAN_ANOMALY,BSTAR,MEAN_MOTION_DOT,MEAN_MOTION_DDOT,TLE_LINE0,TLE_LINE1,TLE_LINE2,SEMIMAJOR_AXIS,PERIOD,APOGEE,PERIGEE,DECAYED
51786.0,STARLINK-3638,PAYLOAD,2022-08-02 14:00:01,15.08809487,0.000233,53.2158,132.8586,58.9952,250.9842,0.0019823,0.00031375,0.0,0 STARLINK-3638,1 51786U 22017U   22214.58334491  .00031375  00000-0  19823-2 0  9991,2 51786  53.2158 132.8586 0002330  58.9952 250.9842 15.08809487  1306,6917.974,95.439,541.451,538.227,0.0
51786.0,STARLINK-3638,PAYLOAD,2022-08-03 06:00:00,15.0882006,0.0002481,53.2154,129.8674,55.7363,277.4063,0.0022462,0.00035623,0.0,0 STARLINK-3638,1 51786U 22017U   22215.25001157  .00035623  00000-0  22462-2 0  9999,2 51786  53.2154 129.8674 0002481  55.7363 277.4063 15.08820060 25534,6917.941,95.439,541.523,538.09,0.0
51786.0,STARLINK-3638,PAYLOAD,2022-08-03 14:00:01,15.08820074,0.0002338,53.2155,128.3693,61.7354,283.005,0.0024760999999999,0.00039319,0.0,0 STARLINK-3638,1 51786U 22017U   22215.58334491  .00039319  00000-0  24761-2 0  9995,2 51786  53.2155 128.3693 0002338  61.7354 283.0050 15.08820074  1301,6917.941,95.439,541.424,538.189,0.0
51786.0,STARLINK-3638,PAYLOAD,2022-08-03 22:00:01,15.088622699999998,0.0002409,53.2156,126.8737,61.4179,294.9702,-0.0016829999999999,-0.00026991,0.0,0 STARLINK-3638,1 51786U 22017U   22215.91668981 -.00026991  00000-0 -16830-2 0  9998,2 51786  53.2156 126.8737 0002409  61.4179 294.9702 15.08862270 25636,6917.812,95.436,541.344,538.011,0.0
51786.0,STARLINK-3638,PAYLOAD,2022-08-04 14:00:01,15.08803726,0.0002237,53.2151,123.8799,63.3408,316.2089,0.0027666,0.00043974,0.0,0 STARLINK-3638,1 51786U 22017U   22216.58334491  .00043974  00000-0  27666-2 0  9995,2 51786  53.2151 123.8799 0002237  63.3408 316.2089 15.08803726  1306,6917.991,95.44,541.404,538.309,0.0
51786.0,STARLINK-3638,PAYLOAD,2022-08-04 22:00:00,15.08846906,0.0002342,53.2152,122.3846,62.5282,328.5887,-0.001843,-0.00029507,0.0,0 STARLINK-3638,1 51786U 22017U   22216.91667824 -.00029507  00000-0 -18430-2 0  9998,2 51786  53.2152 122.3846 0002342  62.5282 328.5887 15.08846906 25789,6917.859,95.437,541.344,538.104,0.0
51786.0,STARLINK-3638,PAYLOAD,2022-08-05 14:00:01,15.08823483,0.0002268,53.2158,119.389,65.0742,349.2938,0.0015293,0.00024124,0.0,0 STARLINK-3638,1 51786U 22017U   22217.58335648  .00024124  00000-0  15293-2 0  9990,2 51786  53.2158 119.3890 0002268  65.0742 349.2938 15.08823483  1300,6917.931,95.439,541.365,538.227,0.0
51786.0,STARLINK-3638,PAYLOAD,2022-08-05 22:00:00,15.08859303,0.000239,53.2148,117.8954,64.4793,1.4125,-0.001713,-0.00027463,0.0,0 STARLINK-3638,1 51786U 22017U   22217.91667824 -.00027463  00000-0 -17130-2 0  9994,2 51786  53.2148 117.8954 0002390  64.4793   1.4125 15.08859303  1303,6917.821,95.436,541.34,538.033,0.0
51786.0,STARLINK-3638,PAYLOAD,2022-08-06 14:00:01,15.08804442,0.0002221,53.2146,114.9012,66.3515,22.7594,0.0029449,0.00046847,0.0,0 STARLINK-3638,1 51786U 22017U   22218.58334491  .00046847  00000-0  29449-2 0  9990,2 51786  53.2146 114.9012 0002221  66.3515  22.7594 15.08804442 26037,6917.989000000001,95.44,541.391,538.318,0.0
51786.0,STARLINK-3638,PAYLOAD,2022-08-06 21:33:22,15.0883816,0.0002413,53.2168,113.4884,62.9914,297.1324,5.7411e-05,6.25e-06,0.0,0 STARLINK-3638,1 51786U 22017U   22218.89817621  .00000625  00000-0  57411-4 0  9991,2 51786  53.2168 113.4884 0002413  62.9914 297.1324 15.08838160 24390,6917.886,95.438,541.42,538.082,0.0
51786.0,STARLINK-3638,PAYLOAD,2022-08-07 06:00:00,15.08836936,0.0002391,53.2147,111.91,61.2859,50.9842,0.00059406,9.178e-05,0.0,0 STARLINK-3638,1 51786U 22017U   22219.25001157  .00009178  00000-0  59406-3 0  9998,2 51786  53.2147 111.9100 0002391  61.2859  50.9842 15.08836936 26139,6917.89,95.438,541.409,538.101,0.0
51786.0,STARLINK-3638,PAYLOAD,2022-08-07 10:16:27,15.08839566,0.0002376999999999,53.2169,111.1099,64.6078,295.516,5.2514e-05,5.47e-06,0.0,0 STARLINK-3638,1 51786U 22017U   22219.42809648  .00000547  00000-0  52514-4 0  9993,2 51786  53.2169 111.1099 0002377  64.6078 295.5160 15.08839566 24473,6917.882,95.438,541.391,538.102,0.0
51786.0,STARLINK-3638,PAYLOAD,2022-08-07 21:24:08,15.08848686,0.0002363,53.2165,109.0281,64.9529,295.1708,6.2824e-05,7.12e-06,0.0,0 STARLINK-3638,1 51786U 22017U   22219.89176958  .00000712  00000-0  62824-4 0  9994,2 51786  53.2165 109.0281 0002363  64.9529 295.1708 15.08848686 24542,6917.854,95.437,541.354,538.0840000000002,0.0
51786.0,STARLINK-3638,PAYLOAD,2022-08-08 11:42:36,15.08849261,0.0002365,53.2164,106.3515,66.697,293.4271,4.7692e-05,4.71e-06,0.0,0 STARLINK-3638,1 51786U 22017U   22220.48792638  .00000471  00000-0  47692-4 0  9998,2 51786  53.2164 106.3515 0002365  66.6970 293.4271 15.08849261 24638,6917.852,95.437,541.3530000000002,538.081,0.0
51786.0,STARLINK-3638,PAYLOAD,2022-08-08 22:00:00,15.08867148,0.0002290999999999,53.2159,104.4279,63.7964,106.5052,-0.0026204,-0.00041783,0.0,0 STARLINK-3638,1 51786U 22017U   22220.91667824 -.00041783  00000-0 -26204-2 0  9991,2 51786  53.2159 104.4279 0002291  63.7964 106.5052 15.08867148  1301,6917.797,95.436,541.247,538.078,0.0
51786.0,STARLINK-3638,PAYLOAD,2022-08-09 14:00:01,15.08793255,0.0001999,53.2162,101.4337,65.3029,128.2055,0.0018394,0.0002907,0.0,0 STARLINK-3638,1 51786U 22017U   22221.58334491  .00029070  00000-0  18394-2 0  9990,2 51786  53.2162 101.4337 0001999  65.3029 128.2055 15.08793255  1302,6918.023,95.441,541.271,538.505,0.0
51786.0,STARLINK-3638,PAYLOAD,2022-08-09 22:00:00,15.08812918,0.0002117,53.2163,99.939,61.3977,143.661,-0.00046377,-7.656e-05,0.0,0 STARLINK-3638,1 51786U 22017U   22221.91667824 -.00007656  00000-0 -46377-3 0  9997,2 51786  53.2163  99.9390 0002117  61.3977 143.6610 15.08812918  1300,6917.9630000000025,95.439,541.293,538.364,0.0
51786.0,STARLINK-3638,PAYLOAD,2022-08-10 06:00:00,15.088296599999998,0.0002098,53.2162,98.4426,60.3149,156.2994,-0.00072675,-0.00011833,0.0,0 STARLINK-3638,1 51786U 22017U   22222.25001157 -.00011833  00000-0 -72675-3 0  9998,2 51786  53.2162  98.4426 0002098  60.3149 156.2994 15.08829660 26596,6917.9119999999975,95.438,541.2280000000002,538.326,0.0
51786.0,STARLINK-3638,PAYLOAD,2022-08-10 14:00:01,15.08810473,0.0001999,53.2164,96.9448,67.0507,161.1444,0.0027784,0.00044172,0.0,0 STARLINK-3638,1 51786U 22017U   22222.58334491  .00044172  00000-0  27784-2 0  9994,2 51786  53.2164  96.9448 0001999  67.0507 161.1444 15.08810473  1305,6917.971,95.439,541.219,538.453,0.0
51786.0,STARLINK-3638,PAYLOAD,2022-08-10 22:00:00,15.08834642,0.000212,53.2164,95.4502,62.6909,177.0795,-0.0003756,-6.26e-05,0.0,0 STARLINK-3638,1 51786U 22017U   22222.91667824 -.00006260  00000-0 -37560-3 0  9992,2 51786  53.2164  95.4502 0002120  62.6909 177.0795 15.08834642  1303,6917.897,95.438,541.2280000000002,538.295,0.0
51786.0,STARLINK-3638,PAYLOAD,2022-08-11 06:00:02,15.08863175,0.0002025,53.2161,93.9534,61.9368,189.4745,-0.0043778,-0.00069337,0.0,0 STARLINK-3638,1 51786U 22017U   22223.25002315 -.00069337  00000-0 -43778-2 0  9999,2 51786  53.2161  93.9534 0002025  61.9368 189.4745 15.08863175 26743,6917.81,95.436,541.075,538.274,0.0
51786.0,STARLINK-3638,PAYLOAD,2022-08-11 14:00:01,15.08802506,0.0001885999999999,53.2162,92.4557,68.1221,194.8255,0.0025544,0.00040558,0.0,0 STARLINK-3638,1 51786U 22017U   22223.58334491  .00040558  00000-0  25544-2 0  9991,2 51786  53.2162  92.4557 0001886  68.1221 194.8255 15.08802506  1306,6917.995,95.44,541.165,538.555,0.0
51786.0,STARLINK-3638,PAYLOAD,2022-08-11 22:00:00,15.0882446,0.0002012,53.216,90.9611,63.0564,211.4595,-0.000226,-3.882e-05,0.0,0 STARLINK-3638,1 51786U 22017U   22223.91667824 -.00003882  00000-0 -22600-3 0  9999,2 51786  53.2160  90.9611 0002012  63.0564 211.4595 15.08824460 26846,6917.928000000001,95.439,541.185,538.401,0.0
51786.0,STARLINK-3638,PAYLOAD,2022-08-12 14:00:01,15.088292,0.0001889,53.2156,87.9665,70.4889,227.1981,0.002624,0.00041708,0.0,0 STARLINK-3638,1 51786U 22017U   22224.58334491  .00041708  00000-0  26240-2 0  9994,2 51786  53.2156  87.9665 0001889  70.4889 227.1981 15.08829200  1303,6917.913000000001,95.438,541.085,538.472,0.0
51786.0,STARLINK-3638,PAYLOAD,2022-08-12 22:00:01,15.08844967,0.0002009999999999,53.2153,86.4718,64.7859,244.5601,6.1095e-05,6.84e-06,0.0,0 STARLINK-3638,1 51786U 22017U   22224.91668981  .00000684  00000-0  61095-4 0  9992,2 51786  53.2153  86.4718 0002010  64.7859 244.5601 15.08844967  1302,6917.865,95.437,541.121,538.34,0.0
51786.0,STARLINK-3638,PAYLOAD,2022-08-13 06:00:02,15.08878895,0.0001896,53.2149,84.9745,64.4734,256.4677,-0.0048343999999999,-0.00076494,0.0,0 STARLINK-3638,1 51786U 22017U   22225.25002315 -.00076494  00000-0 -48344-2 0  9997,2 51786  53.2149  84.9745 0001896  64.4734 256.4677 15.08878895 27041,6917.762,95.435,540.938,538.315,0.0
51786.0,STARLINK-3638,PAYLOAD,2022-08-13 14:00:01,15.0883735,0.0001844,53.215,83.4769,71.4501,261.0476,0.0003282,4.939e-05,0.0,0 STARLINK-3638,1 51786U 22017U   22225.58334491  .00004939  00000-0  32820-3 0  9992,2 51786  53.2150  83.4769 0001844  71.4501 261.0476 15.08837350  1307,6917.888000000001,95.438,541.029,538.4780000000002,0.0
51786.0,STARLINK-3638,PAYLOAD,2022-08-13 22:00:00,15.08831074,0.0001945,53.2158,81.98200000000001,64.0076,280.0866,0.00037236,5.642e-05,0.0,0 STARLINK-3638,1 51786U 22017U   22225.91667824  .00005642  00000-0  37236-3 0  9996,2 51786  53.2158  81.9820 0001945  64.0076 280.0866 15.08831074  1304,6917.908,95.438,541.118,538.427,0.0
51786.0,STARLINK-3638,PAYLOAD,2022-08-14 14:00:01,15.08840357,0.0001847,53.2148,78.9873,71.2846,295.9923,0.0020237,0.00032067,0.0,0 STARLINK-3638,1 51786U 22017U   22226.58334491  .00032067  00000-0  20237-2 0  9994,2 51786  53.2148  78.9873 0001847  71.2846 295.9923 15.08840357  1306,6917.879,95.438,541.0219999999998,538.467,0.0
